start=new Date('2023-03-04T00:00:00.000Z').valueOf();
sats=[{"REV_AT_EPOCH":"9767","RCS_SIZE":"LARGE","TLE_LINE2":"2 48663  53.0542  21.0683 0001339  74.9969 285.1168 15.06434441 97670","OBJECT_NAME":"STARLINK-2667","FILE":"3850163","COUNTRY_CODE":"US","MEAN_ANOMALY":"285.1168","RA_OF_ASC_NODE":"21.0683","ECCENTRICITY":"0.00013390","TLE_LINE1":"1 48663U 21044AB  23062.16080753  .00025307  00000-0  17102-2 0  9991","INCLINATION":"53.0542","DECAY_DATE":null,"CLASSIFICATION_TYPE":"U","MEAN_MOTION_DDOT":"0.0000000000000","OBJECT_TYPE":"PAYLOAD","TIME_SYSTEM":"UTC","REF_FRAME":"TEME","EPHEMERIS_TYPE":"0","PERIOD":"95.590","APOAPSIS":"548.035","LAUNCH_DATE":"2021-05-26","PERIAPSIS":"546.181","SEMIMAJOR_AXIS":"6925.243","NORAD_CAT_ID":"48663","GP_ID":"227402085","EPOCH":"2023-03-03T03:51:33.770592","ELEMENT_SET_NO":"999","ARG_OF_PERICENTER":"74.9969","MEAN_MOTION":"15.06434441","CENTER_NAME":"EARTH","OBJECT_ID":"2021-044AB","BSTAR":"0.00171020000000","MEAN_ELEMENT_THEORY":"SGP4","MEAN_MOTION_DOT":"0.00025307","SITE":"AFETR"},{"OBJECT_ID":"2021-044AC","CENTER_NAME":"EARTH","MEAN_MOTION_DOT":"0.00040503","MEAN_ELEMENT_THEORY":"SGP4","BSTAR":"0.00271800000000","SITE":"AFETR","ELEMENT_SET_NO":"999","ARG_OF_PERICENTER":"91.4059","MEAN_MOTION":"15.06460014","PERIAPSIS":"545.844","NORAD_CAT_ID":"48664","SEMIMAJOR_AXIS":"6925.165","EPOCH":"2023-03-03T06:57:19.431072","GP_ID":"227400859","REF_FRAME":"TEME","EPHEMERIS_TYPE":"0","PERIOD":"95.588","APOAPSIS":"548.215","LAUNCH_DATE":"2021-05-26","MEAN_MOTION_DDOT":"0.0000000000000","CLASSIFICATION_TYPE":"U","TIME_SYSTEM":"UTC","OBJECT_TYPE":"PAYLOAD","ECCENTRICITY":"0.00017120","DECAY_DATE":null,"TLE_LINE1":"1 48664U 21044AC  23062.28980823  .00040503  00000-0  27180-2 0  9994","INCLINATION":"53.0543","COUNTRY_CODE":"US","RA_OF_ASC_NODE":"20.4899","MEAN_ANOMALY":"268.7126","REV_AT_EPOCH":"9769","RCS_SIZE":"LARGE","TLE_LINE2":"2 48664  53.0543  20.4899 0001712  91.4059 268.7126 15.06460014 97691","FILE":"3850163","OBJECT_NAME":"STARLINK-2709"},{"MEAN_MOTION":"15.06465839","ELEMENT_SET_NO":"999","ARG_OF_PERICENTER":"98.7323","SITE":"AFETR","CENTER_NAME":"EARTH","OBJECT_ID":"2021-044AD","BSTAR":"0.00300030000000","MEAN_ELEMENT_THEORY":"SGP4","MEAN_MOTION_DOT":"0.00044772","PERIOD":"95.588","APOAPSIS":"547.644","LAUNCH_DATE":"2021-05-26","REF_FRAME":"TEME","EPHEMERIS_TYPE":"0","SEMIMAJOR_AXIS":"6925.147","NORAD_CAT_ID":"48665","GP_ID":"227400607","EPOCH":"2023-03-03T07:17:11.950656","PERIAPSIS":"546.380","ECCENTRICITY":"0.00009130","TLE_LINE1":"1 48665U 21044AD  23062.30361054  .00044772  00000-0  30003-2 0  9997","INCLINATION":"53.0553","DECAY_DATE":null,"OBJECT_TYPE":"PAYLOAD","TIME_SYSTEM":"UTC","CLASSIFICATION_TYPE":"U","MEAN_MOTION_DDOT":"0.0000000000000","TLE_LINE2":"2 48665  53.0553  20.4235 0000913  98.7323 261.3770 15.06465839 97697","RCS_SIZE":"LARGE","OBJECT_NAME":"STARLINK-2653","FILE":"3850163","REV_AT_EPOCH":"9769","COUNTRY_CODE":"US","MEAN_ANOMALY":"261.3770","RA_OF_ASC_NODE":"20.4235"},{"RA_OF_ASC_NODE":"20.8463","MEAN_ANOMALY":"260.8581","COUNTRY_CODE":"US","FILE":"3850163","OBJECT_NAME":"STARLINK-2666","RCS_SIZE":"LARGE","TLE_LINE2":"2 48666  53.0532  20.8463 0000808  99.2499 260.8581 15.06448551 97680","REV_AT_EPOCH":"9768","TIME_SYSTEM":"UTC","OBJECT_TYPE":"PAYLOAD","MEAN_MOTION_DDOT":"0.0000000000000","CLASSIFICATION_TYPE":"U","DECAY_DATE":null,"INCLINATION":"53.0532","TLE_LINE1":"1 48666U 21044AE  23062.31566780  .00039643  00000-0  26619-2 0  9991","ECCENTRICITY":"0.00008080","EPOCH":"2023-03-03T07:34:33.697920","GP_ID":"227401350","NORAD_CAT_ID":"48666","SEMIMAJOR_AXIS":"6925.200","PERIAPSIS":"546.505","LAUNCH_DATE":"2021-05-26","PERIOD":"95.589","APOAPSIS":"547.624","EPHEMERIS_TYPE":"0","REF_FRAME":"TEME","SITE":"AFETR","MEAN_MOTION_DOT":"0.00039643","BSTAR":"0.00266190000000","MEAN_ELEMENT_THEORY":"SGP4","OBJECT_ID":"2021-044AE","CENTER_NAME":"EARTH","MEAN_MOTION":"15.06448551","ARG_OF_PERICENTER":"99.2499","ELEMENT_SET_NO":"999"},{"TIME_SYSTEM":"UTC","OBJECT_TYPE":"PAYLOAD","MEAN_MOTION_DDOT":"0.0000000000000","CLASSIFICATION_TYPE":"U","ECCENTRICITY":"0.00009340","DECAY_DATE":null,"INCLINATION":"53.0544","TLE_LINE1":"1 48667U 21044AF  23062.88324140  .00010921  00000-0  75083-3 0  9994","COUNTRY_CODE":"US","RA_OF_ASC_NODE":"17.8231","MEAN_ANOMALY":"267.9852","RCS_SIZE":"LARGE","TLE_LINE2":"2 48667  53.0544  17.8231 0000934  92.1244 267.9852 15.06405434 97786","FILE":"3850400","OBJECT_NAME":"STARLINK-2735","REV_AT_EPOCH":"9778","SITE":"AFETR","OBJECT_ID":"2021-044AF","CENTER_NAME":"EARTH","MEAN_MOTION_DOT":"0.00010921","MEAN_ELEMENT_THEORY":"SGP4","BSTAR":"0.00075083000000","MEAN_MOTION":"15.06405434","ELEMENT_SET_NO":"999","ARG_OF_PERICENTER":"92.1244","NORAD_CAT_ID":"48667","SEMIMAJOR_AXIS":"6925.332","EPOCH":"2023-03-03T21:11:52.056960","GP_ID":"227432090","PERIAPSIS":"546.550","APOAPSIS":"547.844","PERIOD":"95.592","LAUNCH_DATE":"2021-05-26","REF_FRAME":"TEME","EPHEMERIS_TYPE":"0"},{"MEAN_MOTION_DOT":"0.00048367","BSTAR":"0.00323890000000","MEAN_ELEMENT_THEORY":"SGP4","OBJECT_ID":"2021-044AG","CENTER_NAME":"EARTH","SITE":"AFETR","ARG_OF_PERICENTER":"79.1807","ELEMENT_SET_NO":"999","MEAN_MOTION":"15.06455814","PERIAPSIS":"545.946","EPOCH":"2023-03-03T06:46:42.893760","GP_ID":"227400360","NORAD_CAT_ID":"48668","SEMIMAJOR_AXIS":"6925.178","EPHEMERIS_TYPE":"0","REF_FRAME":"TEME","LAUNCH_DATE":"2021-05-26","PERIOD":"95.589","APOAPSIS":"548.139","MEAN_MOTION_DDOT":"0.0000000000000","CLASSIFICATION_TYPE":"U","TIME_SYSTEM":"UTC","OBJECT_TYPE":"PAYLOAD","DECAY_DATE":null,"INCLINATION":"53.0550","TLE_LINE1":"1 48668U 21044AG  23062.28244090  .00048367  00000-0  32389-2 0  9990","ECCENTRICITY":"0.00015830","RA_OF_ASC_NODE":"20.5166","MEAN_ANOMALY":"280.9360","COUNTRY_CODE":"US","REV_AT_EPOCH":"9769","OBJECT_NAME":"STARLINK-2738","FILE":"3850163","TLE_LINE2":"2 48668  53.0550  20.5166 0001583  79.1807 280.9360 15.06455814 97699","RCS_SIZE":"LARGE"},{"RA_OF_ASC_NODE":"19.3433","MEAN_ANOMALY":"283.0313","COUNTRY_CODE":"US","REV_AT_EPOCH":"9772","FILE":"3850163","OBJECT_NAME":"STARLINK-2707","RCS_SIZE":"LARGE","TLE_LINE2":"2 48669  53.0559  19.3433 0001603  77.0855 283.0313 15.06405867 97724","MEAN_MOTION_DDOT":"0.0000000000000","CLASSIFICATION_TYPE":"U","TIME_SYSTEM":"UTC","OBJECT_TYPE":"PAYLOAD","DECAY_DATE":null,"TLE_LINE1":"1 48669U 21044AH  23062.54413892  .00019890  00000-0  13502-2 0  9993","INCLINATION":"53.0559","ECCENTRICITY":"0.00016030","PERIAPSIS":"546.085","EPOCH":"2023-03-03T13:03:33.602688","GP_ID":"227401107","NORAD_CAT_ID":"48669","SEMIMAJOR_AXIS":"6925.331","EPHEMERIS_TYPE":"0","REF_FRAME":"TEME","LAUNCH_DATE":"2021-05-26","APOAPSIS":"548.306","PERIOD":"95.592","MEAN_MOTION_DOT":"0.00019890","BSTAR":"0.00135020000000","MEAN_ELEMENT_THEORY":"SGP4","OBJECT_ID":"2021-044AH","CENTER_NAME":"EARTH","SITE":"AFETR","ARG_OF_PERICENTER":"77.0855","ELEMENT_SET_NO":"999","MEAN_MOTION":"15.06405867"},{"OBJECT_TYPE":"PAYLOAD","TIME_SYSTEM":"UTC","CLASSIFICATION_TYPE":"U","MEAN_MOTION_DDOT":"0.0000000000000","ECCENTRICITY":"0.00012600","INCLINATION":"53.0559","TLE_LINE1":"1 48670U 21044AJ  23062.14237766  .00005870  00000-0  41248-3 0  9997","DECAY_DATE":null,"COUNTRY_CODE":"US","MEAN_ANOMALY":"260.2559","RA_OF_ASC_NODE":"21.1435","TLE_LINE2":"2 48670  53.0559  21.1435 0001260  99.8572 260.2559 15.06415652 97661","RCS_SIZE":"LARGE","OBJECT_NAME":"STARLINK-2763","FILE":"3850163","REV_AT_EPOCH":"9766","SITE":"AFETR","CENTER_NAME":"EARTH","OBJECT_ID":"2021-044AJ","MEAN_ELEMENT_THEORY":"SGP4","BSTAR":"0.00041248000000","MEAN_MOTION_DOT":"0.00005870","MEAN_MOTION":"15.06415652","ELEMENT_SET_NO":"999","ARG_OF_PERICENTER":"99.8572","SEMIMAJOR_AXIS":"6925.301","NORAD_CAT_ID":"48670","GP_ID":"227401850","EPOCH":"2023-03-03T03:25:01.429824","PERIAPSIS":"546.293","PERIOD":"95.591","APOAPSIS":"548.038","LAUNCH_DATE":"2021-05-26","REF_FRAME":"TEME","EPHEMERIS_TYPE":"0"},{"REF_FRAME":"TEME","EPHEMERIS_TYPE":"0","PERIOD":"95.586","APOAPSIS":"547.524","LAUNCH_DATE":"2021-05-26","PERIAPSIS":"546.352","NORAD_CAT_ID":"48671","SEMIMAJOR_AXIS":"6925.073","EPOCH":"2023-03-03T09:41:50.734752","GP_ID":"227402086","ELEMENT_SET_NO":"999","ARG_OF_PERICENTER":"144.9188","MEAN_MOTION":"15.06490001","OBJECT_ID":"2021-044AK","CENTER_NAME":"EARTH","MEAN_MOTION_DOT":"0.00043054","MEAN_ELEMENT_THEORY":"SGP4","BSTAR":"0.00288470000000","SITE":"AFETR","REV_AT_EPOCH":"9770","TLE_LINE2":"2 48671  53.0532  19.9764 0000846 144.9188 215.1856 15.06490001 97702","RCS_SIZE":"LARGE","OBJECT_NAME":"STARLINK-2745","FILE":"3850163","COUNTRY_CODE":"US","RA_OF_ASC_NODE":"19.9764","MEAN_ANOMALY":"215.1856","ECCENTRICITY":"0.00008460","DECAY_DATE":null,"TLE_LINE1":"1 48671U 21044AK  23062.40405943  .00043054  00000-0  28847-2 0  9996","INCLINATION":"53.0532","MEAN_MOTION_DDOT":"0.0000000000000","CLASSIFICATION_TYPE":"U","TIME_SYSTEM":"UTC","OBJECT_TYPE":"PAYLOAD"},{"REF_FRAME":"TEME","EPHEMERIS_TYPE":"0","APOAPSIS":"548.497","PERIOD":"95.590","LAUNCH_DATE":"2021-05-26","PERIAPSIS":"545.684","NORAD_CAT_ID":"48672","SEMIMAJOR_AXIS":"6925.225","EPOCH":"2023-03-03T06:25:28.914528","GP_ID":"227400860","ELEMENT_SET_NO":"999","ARG_OF_PERICENTER":"126.0872","MEAN_MOTION":"15.06440155","OBJECT_ID":"2021-044AL","CENTER_NAME":"EARTH","MEAN_MOTION_DOT":"0.00017136","MEAN_ELEMENT_THEORY":"SGP4","BSTAR":"0.00116520000000","SITE":"AFETR","REV_AT_EPOCH":"9768","RCS_SIZE":"LARGE","TLE_LINE2":"2 48672  53.0560  20.5739 0002031 126.0872 234.0306 15.06440155 97685","FILE":"3850163","OBJECT_NAME":"STARLINK-2705","COUNTRY_CODE":"US","RA_OF_ASC_NODE":"20.5739","MEAN_ANOMALY":"234.0306","ECCENTRICITY":"0.00020310","DECAY_DATE":null,"TLE_LINE1":"1 48672U 21044AL  23062.26769577  .00017136  00000-0  11652-2 0  9995","INCLINATION":"53.0560","MEAN_MOTION_DDOT":"0.0000000000000","CLASSIFICATION_TYPE":"U","TIME_SYSTEM":"UTC","OBJECT_TYPE":"PAYLOAD"}];
